{"fetched_at":"2026-07-18T17:29:59.338Z","source":"https://celestrak.org/NORAD/elements/gp.php?NAME=ICEYE&FORMAT=JSON","constellation":"iceye","records":[{"OBJECT_NAME":"ICEYE-X40","OBJECT_ID":"2024-149CK","EPOCH":"2026-07-18T03:54:22.964256","CLASSIFICATION_TYPE":"U","MEAN_MOTION":14.98084258,"ECCENTRICITY":0.00036494,"INCLINATION":97.6805,"RA_OF_ASC_NODE":275.1599,"ARG_OF_PERICENTER":355.3306,"MEAN_ANOMALY":4.7882,"EPHEMERIS_TYPE":0,"NORAD_CAT_ID":60549,"ELEMENT_SET_NO":999,"REV_AT_EPOCH":10471,"BSTAR":0.00013359194,"MEAN_MOTION_DOT":0.00001523,"MEAN_MOTION_DDOT":0},{"OBJECT_NAME":"ICEYE-X49","OBJECT_ID":"2024-247H","EPOCH":"2026-07-17T08:01:48.831744","CLASSIFICATION_TYPE":"U","MEAN_MOTION":15.13466886,"ECCENTRICITY":0.00013347,"INCLINATION":44.9994,"RA_OF_ASC_NODE":196.3565,"ARG_OF_PERICENTER":239.0218,"MEAN_ANOMALY":121.0529,"EPHEMERIS_TYPE":0,"NORAD_CAT_ID":62384,"ELEMENT_SET_NO":999,"REV_AT_EPOCH":8674,"BSTAR":0.00009597161,"MEAN_MOTION_DOT":0.00001489,"MEAN_MOTION_DDOT":0},{"OBJECT_NAME":"ICEYE-X47","OBJECT_ID":"2024-247N","EPOCH":"2026-07-18T00:52:38.539488","CLASSIFICATION_TYPE":"U","MEAN_MOTION":15.13491466,"ECCENTRICITY":0.00011183,"INCLINATION":44.996,"RA_OF_ASC_NODE":192.2014,"ARG_OF_PERICENTER":5.891,"MEAN_ANOMALY":354.1981,"EPHEMERIS_TYPE":0,"NORAD_CAT_ID":62389,"ELEMENT_SET_NO":999,"REV_AT_EPOCH":8685,"BSTAR":0.000067046503,"MEAN_MOTION_DOT":0.00000963,"MEAN_MOTION_DDOT":0},{"OBJECT_NAME":"ICEYE-X42","OBJECT_ID":"2025-009CT","EPOCH":"2026-07-18T04:40:01.316352","CLASSIFICATION_TYPE":"U","MEAN_MOTION":14.91826278,"ECCENTRICITY":0.00013092,"INCLINATION":97.7388,"RA_OF_ASC_NODE":276.9497,"ARG_OF_PERICENTER":97.2965,"MEAN_ANOMALY":262.8403,"EPHEMERIS_TYPE":0,"NORAD_CAT_ID":62698,"ELEMENT_SET_NO":999,"REV_AT_EPOCH":8191,"BSTAR":0.00007487186,"MEAN_MOTION_DOT":0.000007,"MEAN_MOTION_DDOT":0},{"OBJECT_NAME":"ICEYE-X41","OBJECT_ID":"2025-009CV","EPOCH":"2026-07-18T03:42:56.200032","CLASSIFICATION_TYPE":"U","MEAN_MOTION":14.96922389,"ECCENTRICITY":0.000032,"INCLINATION":97.7058,"RA_OF_ASC_NODE":278.2321,"ARG_OF_PERICENTER":209.9543,"MEAN_ANOMALY":150.166,"EPHEMERIS_TYPE":0,"NORAD_CAT_ID":62700,"ELEMENT_SET_NO":999,"REV_AT_EPOCH":8204,"BSTAR":0.00014862339,"MEAN_MOTION_DOT":0.00001649,"MEAN_MOTION_DDOT":0},{"OBJECT_NAME":"ICEYE-X45","OBJECT_ID":"2025-009DA","EPOCH":"2026-07-18T04:45:15.949728","CLASSIFICATION_TYPE":"U","MEAN_MOTION":15.00845643,"ECCENTRICITY":0.00010038,"INCLINATION":97.8419,"RA_OF_ASC_NODE":286.1425,"ARG_OF_PERICENTER":74.277,"MEAN_ANOMALY":285.8564,"EPHEMERIS_TYPE":0,"NORAD_CAT_ID":62705,"ELEMENT_SET_NO":999,"REV_AT_EPOCH":8233,"BSTAR":0.00014811843,"MEAN_MOTION_DOT":0.00001821,"MEAN_MOTION_DDOT":0},{"OBJECT_NAME":"ICEYE-X44","OBJECT_ID":"2025-009DC","EPOCH":"2026-07-18T04:27:02.916288","CLASSIFICATION_TYPE":"U","MEAN_MOTION":14.96176641,"ECCENTRICITY":0.00023497,"INCLINATION":97.7057,"RA_OF_ASC_NODE":277.8227,"ARG_OF_PERICENTER":66.8438,"MEAN_ANOMALY":293.303,"EPHEMERIS_TYPE":0,"NORAD_CAT_ID":62707,"ELEMENT_SET_NO":999,"REV_AT_EPOCH":10457,"BSTAR":0.00011435777,"MEAN_MOTION_DOT":0.00001231,"MEAN_MOTION_DDOT":0},{"OBJECT_NAME":"ICEYE-X48","OBJECT_ID":"2025-052AV","EPOCH":"2026-07-18T04:22:58.475136","CLASSIFICATION_TYPE":"U","MEAN_MOTION":14.98137541,"ECCENTRICITY":0.00042457,"INCLINATION":97.684,"RA_OF_ASC_NODE":90.8935,"ARG_OF_PERICENTER":97.1154,"MEAN_ANOMALY":263.0552,"EPHEMERIS_TYPE":0,"NORAD_CAT_ID":63253,"ELEMENT_SET_NO":999,"REV_AT_EPOCH":7331,"BSTAR":0.00016804498,"MEAN_MOTION_DOT":0.00001933,"MEAN_MOTION_DDOT":0},{"OBJECT_NAME":"ICEYE-X50","OBJECT_ID":"2025-052AX","EPOCH":"2026-07-18T06:34:33.504960","CLASSIFICATION_TYPE":"U","MEAN_MOTION":14.95369588,"ECCENTRICITY":0.00034238,"INCLINATION":97.6852,"RA_OF_ASC_NODE":90.5678,"ARG_OF_PERICENTER":95.7431,"MEAN_ANOMALY":264.418,"EPHEMERIS_TYPE":0,"NORAD_CAT_ID":63255,"ELEMENT_SET_NO":999,"REV_AT_EPOCH":7329,"BSTAR":0.000036920823,"MEAN_MOTION_DOT":0.00000351,"MEAN_MOTION_DDOT":0},{"OBJECT_NAME":"ICEYE-X51","OBJECT_ID":"2025-052AZ","EPOCH":"2026-07-18T04:36:51.861024","CLASSIFICATION_TYPE":"U","MEAN_MOTION":15.00884278,"ECCENTRICITY":0.00020634,"INCLINATION":97.7614,"RA_OF_ASC_NODE":94.2339,"ARG_OF_PERICENTER":65.1174,"MEAN_ANOMALY":295.0264,"EPHEMERIS_TYPE":0,"NORAD_CAT_ID":63257,"ELEMENT_SET_NO":999,"REV_AT_EPOCH":7345,"BSTAR":0.00019398467,"MEAN_MOTION_DOT":0.00002408,"MEAN_MOTION_DDOT":0},{"OBJECT_NAME":"ICEYE-X46","OBJECT_ID":"2025-052BA","EPOCH":"2026-07-17T22:28:03.097344","CLASSIFICATION_TYPE":"U","MEAN_MOTION":14.95371857,"ECCENTRICITY":0.00016445,"INCLINATION":97.6856,"RA_OF_ASC_NODE":90.2357,"ARG_OF_PERICENTER":80.7874,"MEAN_ANOMALY":279.3533,"EPHEMERIS_TYPE":0,"NORAD_CAT_ID":63258,"ELEMENT_SET_NO":999,"REV_AT_EPOCH":7324,"BSTAR":0.000054601704,"MEAN_MOTION_DOT":0.00000546,"MEAN_MOTION_DDOT":0},{"OBJECT_NAME":"ICEYE-X54","OBJECT_ID":"2025-135AU","EPOCH":"2026-07-18T06:55:33.456288","CLASSIFICATION_TYPE":"U","MEAN_MOTION":14.94741019,"ECCENTRICITY":0.0002277,"INCLINATION":97.7748,"RA_OF_ASC_NODE":313.4156,"ARG_OF_PERICENTER":173.1492,"MEAN_ANOMALY":186.976,"EPHEMERIS_TYPE":0,"NORAD_CAT_ID":64570,"ELEMENT_SET_NO":999,"REV_AT_EPOCH":5854,"BSTAR":0.0001069598,"MEAN_MOTION_DOT":0.00001104,"MEAN_MOTION_DDOT":0},{"OBJECT_NAME":"ICEYE-X52","OBJECT_ID":"2025-135AW","EPOCH":"2026-07-18T06:55:41.744640","CLASSIFICATION_TYPE":"U","MEAN_MOTION":14.93658574,"ECCENTRICITY":0.00014879,"INCLINATION":97.777,"RA_OF_ASC_NODE":313.2008,"ARG_OF_PERICENTER":178.5029,"MEAN_ANOMALY":181.6195,"EPHEMERIS_TYPE":0,"NORAD_CAT_ID":64572,"ELEMENT_SET_NO":999,"REV_AT_EPOCH":5852,"BSTAR":0.000068816962,"MEAN_MOTION_DOT":0.0000067,"MEAN_MOTION_DDOT":0},{"OBJECT_NAME":"ICEYE-X56","OBJECT_ID":"2025-135AY","EPOCH":"2026-07-18T06:34:23.471328","CLASSIFICATION_TYPE":"U","MEAN_MOTION":14.95774416,"ECCENTRICITY":0.00015917,"INCLINATION":97.7771,"RA_OF_ASC_NODE":313.9948,"ARG_OF_PERICENTER":177.5428,"MEAN_ANOMALY":182.5801,"EPHEMERIS_TYPE":0,"NORAD_CAT_ID":64574,"ELEMENT_SET_NO":999,"REV_AT_EPOCH":5857,"BSTAR":0.00017821889,"MEAN_MOTION_DOT":0.00001929,"MEAN_MOTION_DDOT":0},{"OBJECT_NAME":"ICEYE-X57","OBJECT_ID":"2025-135BC","EPOCH":"2026-07-18T06:26:05.789184","CLASSIFICATION_TYPE":"U","MEAN_MOTION":15.00864492,"ECCENTRICITY":0.00021252,"INCLINATION":97.803,"RA_OF_ASC_NODE":315.8349,"ARG_OF_PERICENTER":56.9017,"MEAN_ANOMALY":303.2411,"EPHEMERIS_TYPE":0,"NORAD_CAT_ID":64578,"ELEMENT_SET_NO":999,"REV_AT_EPOCH":5868,"BSTAR":0.00019008645,"MEAN_MOTION_DOT":0.00002356,"MEAN_MOTION_DDOT":0},{"OBJECT_NAME":"ICEYE-X55","OBJECT_ID":"2025-135BF","EPOCH":"2026-07-18T06:46:18.894432","CLASSIFICATION_TYPE":"U","MEAN_MOTION":14.95373215,"ECCENTRICITY":0.00020395,"INCLINATION":97.7769,"RA_OF_ASC_NODE":313.8268,"ARG_OF_PERICENTER":220.0923,"MEAN_ANOMALY":140.0148,"EPHEMERIS_TYPE":0,"NORAD_CAT_ID":64581,"ELEMENT_SET_NO":999,"REV_AT_EPOCH":5856,"BSTAR":0.00013999753,"MEAN_MOTION_DOT":0.00001487,"MEAN_MOTION_DDOT":0}]}
