ICEYE-X40               
1 60549U 24149CK  26199.16276579  .00001523  00000+0  13359-3 0  9998
2 60549  97.6805 275.1599 0003649 355.3306   4.7882 14.98084258104717
ICEYE-X49               
1 62384U 24247H   26198.33459296  .00001489  00000+0  95972-4 0  9996
2 62384  44.9994 196.3565 0001334 239.0218 121.0529 15.13466886 86748
ICEYE-X47               
1 62389U 24247N   26199.03655717  .00000963  00000+0  67047-4 0  9993
2 62389  44.9960 192.2014 0001118   5.8910 354.1981 15.13491466 86853
ICEYE-X42               
1 62698U 25009CT  26199.19445968  .00000700  00000+0  74872-4 0  9998
2 62698  97.7388 276.9497 0001309  97.2965 262.8403 14.91826278 81912
ICEYE-X41               
1 62700U 25009CV  26199.15481713  .00001649  00000+0  14862-3 0  9991
2 62700  97.7058 278.2321 0000320 209.9543 150.1660 14.96922389 82041
ICEYE-X45               
1 62705U 25009DA  26199.19810127  .00001821  00000+0  14812-3 0  9992
2 62705  97.8419 286.1425 0001003  74.2770 285.8564 15.00845643 82339
ICEYE-X44               
1 62707U 25009DC  26199.18545042  .00001231  00000+0  11436-3 0  9998
2 62707  97.7057 277.8227 0002349  66.8438 293.3030 14.96176641104579
ICEYE-X48               
1 63253U 25052AV  26199.18262124  .00001933  00000+0  16804-3 0  9993
2 63253  97.6840  90.8935 0004245  97.1154 263.0552 14.98137541 73311
ICEYE-X50               
1 63255U 25052AX  26199.27399890  .00000351  00000+0  36921-4 0  9992
2 63255  97.6852  90.5678 0003423  95.7431 264.4180 14.95369588 73290
ICEYE-X51               
1 63257U 25052AZ  26199.19226691  .00002408  00000+0  19398-3 0  9996
2 63257  97.7614  94.2339 0002063  65.1174 295.0264 15.00884278 73454
ICEYE-X46               
1 63258U 25052BA  26198.93614696  .00000546  00000+0  54602-4 0  9993
2 63258  97.6856  90.2357 0001644  80.7874 279.3533 14.95371857 73240
ICEYE-X54               
1 64570U 25135AU  26199.28858167  .00001104  00000+0  10696-3 0  9990
2 64570  97.7748 313.4156 0002277 173.1492 186.9760 14.94741019 58543
ICEYE-X52               
1 64572U 25135AW  26199.28867760  .00000670  00000+0  68817-4 0  9997
2 64572  97.7770 313.2008 0001487 178.5029 181.6195 14.93658574 58525
ICEYE-X56               
1 64574U 25135AY  26199.27388277  .00001929  00000+0  17822-3 0  9996
2 64574  97.7771 313.9948 0001591 177.5428 182.5801 14.95774416 58571
ICEYE-X57               
1 64578U 25135BC  26199.26812256  .00002356  00000+0  19009-3 0  9992
2 64578  97.8030 315.8349 0002125  56.9017 303.2411 15.00864492 58680
ICEYE-X55               
1 64581U 25135BF  26199.28216313  .00001487  00000+0  14000-3 0  9990
2 64581  97.7769 313.8268 0002039 220.0923 140.0148 14.95373215 58566
